STARLINK-5672           
1 55468U 23015V   26068.07602910 -.00000148  00000+0  41533-5 0  9990
2 55468  43.0077 329.1543 0001700 265.8854  94.1794 15.02534256170661
ION SCV-014             
1 62630U 25009X   26068.71776957  .00001812  00000+0  13229-3 0  9995
2 62630  97.4923 144.8636 0006450 112.6479 247.5430 15.04884649 63025
